OBJECT_NAME,OBJECT_ID,EPOCH,MEAN_MOTION,ECCENTRICITY,INCLINATION,RA_OF_ASC_NODE,ARG_OF_PERICENTER,MEAN_ANOMALY,EPHEMERIS_TYPE,CLASSIFICATION_TYPE,NORAD_CAT_ID,ELEMENT_SET_NO,REV_AT_EPOCH,BSTAR,MEAN_MOTION_DOT,MEAN_MOTION_DDOT
INTELSAT 33E DEB,2016-053AA,2026-02-28T21:10:03.003744,0.98615488,.0110144,1.2929,83.6648,58.3410,303.5371,0,U,64396,999,491,0,-.32E-5,0
INTELSAT 33E DEB,2016-053AB,2026-02-28T14:23:36.421440,0.99466786,.0047206,1.2592,81.3272,91.6660,269.6974,0,U,64397,999,482,0,.65E-6,0
INTELSAT 33E DEB,2016-053AC,2026-02-24T02:13:08.698656,1.00972481,.01983908,1.1692,47.8448,317.0627,42.1986,0,U,64398,999,487,0,.21E-6,0
INTELSAT 33E DEB,2016-053AD,2026-02-15T17:23:40.357824,0.98874980,.04857166,1.2846,58.5166,320.1742,37.0853,0,U,64399,999,462,0,-.12E-5,0
INTELSAT 33E DEB,2016-053AE,2026-02-28T08:03:12.028032,1.03345253,.0480725,1.2056,82.0200,305.7756,50.5784,0,U,64400,999,503,0,-.36E-6,0
INTELSAT 33E DEB,2016-053AF,2026-02-19T17:44:03.387840,1.05810450,.07007585,1.1047,72.8646,295.6650,58.1706,0,U,64401,999,506,0,-.58E-6,0
INTELSAT 33E DEB,2016-053AG,2026-03-01T03:37:47.679456,0.98354309,.0120946,1.2314,75.1023,102.4902,259.8571,0,U,64402,999,480,0,-.23E-6,0
INTELSAT 33E DEB,2016-053AH,2026-02-28T08:17:28.021344,1.00712909,.00624297,1.1586,63.4416,335.5143,25.2002,0,U,64403,999,486,0,-.201E-5,0
INTELSAT 33E DEB,2016-053AJ,2026-02-28T13:03:44.029440,0.99862921,.0106646,1.1702,57.1981,26.1083,335.4884,0,U,64404,999,482,0,-.17E-6,0
INTELSAT 33E DEB,2016-053AK,2026-02-28T11:34:21.501984,0.99505325,.0063588,1.4468,95.9339,9.9177,350.7415,0,U,64405,999,482,0,-.325E-5,0
INTELSAT 33E DEB,2016-053AL,2026-02-28T11:25:39.849888,0.98886030,.0127527,1.1943,68.5725,43.8917,318.0878,0,U,64406,999,476,0,-.205E-5,0
INTELSAT 33E DEB,2016-053AN,2026-03-01T01:02:06.658368,1.03199200,.1629624,2.1225,99.3652,272.6718,69.2080,0,U,64408,999,496,0,-.274E-5,0
INTELSAT 33E DEB,2016-053AP,2026-02-28T14:40:38.173152,0.99464195,.0052467,1.2439,79.3972,77.2181,284.2217,0,U,64409,999,478,0,.88E-6,0
INTELSAT 33E DEB,2016-053AQ,2026-02-27T22:43:22.217088,0.99993727,.0064234,1.1807,69.2544,349.9885,10.7909,0,U,64410,999,479,0,-.263E-5,0
INTELSAT 33E DEB,2016-053AR,2026-02-11T13:58:00.849792,1.00885442,.0104507,1.1233,54.0813,331.9381,28.0697,0,U,64411,999,467,0,-.105E-5,0
COSMOS 2589,2025-131A,2026-03-01T16:52:23.760192,1.00222676,.1158889,0.1566,319.2614,142.4769,47.8818,0,U,64467,999,248,0,-.347E-5,0
BREEZE-M R/B,2025-131B,2026-02-26T22:35:18.936096,1.04432222,.3864148,0.4308,302.5287,160.2548,302.1848,0,U,64468,999,263,0,-.171E-5,0
CHINASAT 9C,2025-132A,2026-03-01T12:14:55.389984,1.00272777,.000276,0.0134,121.8185,202.3877,111.0144,0,U,64470,999,306,0,-.266E-5,0
COSMOS 2590,2025-131D,2026-03-01T16:38:46.394592,1.00267242,.3659237,0.1163,359.6558,99.1872,57.9379,0,U,64527,999,253,0,-.305E-5,0
MTG-S1,2025-143A,2026-03-01T09:13:38.818848,1.00268967,.0002734,0.6600,325.7595,343.0673,345.3247,0,U,64723,999,233,0,-.5E-6,0
DROR 1,2025-148A,2026-03-01T09:13:38.818848,1.00271362,.0003561,0.0190,88.2716,253.0724,312.2238,0,U,64784,999,221,0,-.53E-6,0
SHIYAN-29,2025-196A,2026-02-28T23:47:29.786208,1.00289425,.0010347,28.7071,19.8963,184.6612,45.3070,0,U,65486,999,179,0,-.275E-5,0
NUSANTARA LIMA (NUSANTARA 5),2025-205A,2026-03-01T03:17:38.563296,1.00268993,.00007414,0.0912,50.3845,358.1235,272.6634,0,U,65588,999,162,0,-.376E-5,0
TJS-20,2025-238A,2026-03-01T12:01:19.252128,1.00268020,.0007255,5.7090,299.9564,86.9696,15.1231,0,U,66142,999,125,0,.6E-7,0
SPAINSAT NG II,2025-239A,2026-03-01T09:25:28.748640,0.96965974,.7654079,14.9267,234.1659,199.6236,94.9324,0,U,66144,999,130,0,.24E-6,0
CMS-03 (GSAT-7R),2025-249B,2026-03-01T09:25:15.972672,0.99990257,.0000893,0.0685,82.3628,352.7134,309.6690,0,U,66311,999,126,0,-.131E-5,0
VIASAT-3 F2,2025-261A,2026-02-27T00:08:02.605344,1.02454021,.05712731,0.3621,281.5509,199.4953,283.2538,0,U,66454,999,167,0,-.249E-5,0
SHIJIAN-28 (SJ-28),2025-277A,2026-03-01T11:12:38.741184,1.00276327,.0000238,4.8156,273.7575,359.0419,171.3163,0,U,66549,999,107,0,-.383E-5,0
TJS-22,2025-290A,2026-03-01T03:58:25.279968,1.00272977,.000289,1.7947,285.3704,356.2208,3.4341,0,U,66990,999,94,0,-.26E-6,0
TJS-23,2025-306A,2026-02-28T21:35:26.340288,1.00273496,.0004258,5.8345,298.0238,106.0067,254.0070,0,U,67226,999,80,0,-.2E-7,0
CZ-5 R/B,2025-306B,2026-03-01T03:50:44.219328,1.93354770,.7567502,16.0061,275.2099,223.1682,42.9290,0,U,67227,999,138,.22137E-2,.6887E-4,0
FENGYUN 4C,2025-312A,2026-03-01T12:01:28.357824,1.00270616,.0000882,0.0018,267.3129,83.6841,121.6420,0,U,67246,999,70,0,-.342E-5,0
SHIJIAN-29A (SJ-29A),2025-315A,2026-03-01T18:03:13.569696,1.00272558,.0002089,3.1250,97.8890,302.8118,102.7046,0,U,67302,999,54,0,-.84E-6,0
SHIJIAN-29B (SJ-29B),2025-315C,2026-03-01T18:03:13.573152,1.00272288,.0003593,3.1250,97.8725,315.1477,90.4715,0,U,67403,999,61,0,-.85E-6,0
LUCH (OLYMP-K 1) DEB,2014-058D,2026-02-26T11:11:16.173888,0.97993456,.05207694,1.5795,85.6956,329.0115,28.4425,0,U,67745,999,26,0,-.221E-5,0
OBJECT A,2026-028A,2026-03-01T07:23:21.072192,0.99524690,.004202,0.4903,289.2796,229.5720,201.2848,0,U,67756,999,17,0,-.93E-6,0
UNKNOWN,,2026-02-28T13:08:08.045376,0.99116792,.0122258,5.9928,289.9326,253.6025,310.5756,0,U,83903,999,4443,0,-.401E-5,0
UNKNOWN,,2026-02-27T22:45:34.017696,1.02661092,.0224674,5.6095,297.0036,275.7237,282.1708,0,U,83934,999,4607,0,-.6E-7,0
UNKNOWN,,2026-02-27T05:14:06.033696,2.05796928,.7208492,19.4512,300.0109,102.8288,339.5385,0,U,84407,999,7744,.15745E-1,-.62E-6,0
UNKNOWN,,2026-02-22T16:43:29.797824,2.19869117,.7113236,18.0140,134.5257,66.3817,350.2439,0,U,84575,999,6704,-.66146E-2,-.178E-5,0
UNKNOWN,,2026-02-26T09:32:02.169312,2.08152864,.73623298,60.0197,202.3150,77.3367,349.3293,0,U,270298,999,1323,.38063646E-2,.285E-5,0
UNKNOWN,,2026-03-01T06:20:25.237536,2.00967727,.74875364,62.1400,98.2063,49.0037,355.0123,0,U,270365,999,1894,.52468875E-2,.9064E-4,0